SHIJIAN-6 05B (SJ-6 05B)
1 49962U 21122B   26068.69026669  .00003434  00000+0  20679-3 0  9994
2 49962  97.3727  52.7566 0002764  59.7124 300.4380 15.11445981234719
STARLINK-4652           
1 53736U 22107AN  26068.70780953  .00001003  00000+0  81119-4 0  9994
2 53736  53.2171 254.2298 0001273  84.7459 275.3679 15.08835632194584
