[{"OBJECT_NAME":"SHIJIAN-6 05B (SJ-6 05B)","OBJECT_ID":"2021-122B","EPOCH":"2026-03-09T16:33:59.042016","MEAN_MOTION":15.11445981,"ECCENTRICITY":0.0002764,"INCLINATION":97.3727,"RA_OF_ASC_NODE":52.7566,"ARG_OF_PERICENTER":59.7124,"MEAN_ANOMALY":300.438,"EPHEMERIS_TYPE":0,"CLASSIFICATION_TYPE":"U","NORAD_CAT_ID":49962,"ELEMENT_SET_NO":999,"REV_AT_EPOCH":23471,"BSTAR":0.00020679,"MEAN_MOTION_DOT":3.434e-5,"MEAN_MOTION_DDOT":0},{"OBJECT_NAME":"STARLINK-4652","OBJECT_ID":"2022-107AN","EPOCH":"2026-03-09T16:59:14.743392","MEAN_MOTION":15.08835632,"ECCENTRICITY":0.0001273,"INCLINATION":53.2171,"RA_OF_ASC_NODE":254.2298,"ARG_OF_PERICENTER":84.7459,"MEAN_ANOMALY":275.3679,"EPHEMERIS_TYPE":0,"CLASSIFICATION_TYPE":"U","NORAD_CAT_ID":53736,"ELEMENT_SET_NO":999,"REV_AT_EPOCH":19458,"BSTAR":8.1119435e-5,"MEAN_MOTION_DOT":1.003e-5,"MEAN_MOTION_DDOT":0}]
